[{"OBJECT_NAME":"STARLINK-4754","OBJECT_ID":"2022-114AA","EPOCH":"2026-03-09T21:34:45.832512","MEAN_MOTION":15.08832557,"ECCENTRICITY":0.00014476,"INCLINATION":53.2177,"RA_OF_ASC_NODE":293.1541,"ARG_OF_PERICENTER":84.9325,"MEAN_ANOMALY":275.1832,"EPHEMERIS_TYPE":0,"CLASSIFICATION_TYPE":"U","NORAD_CAT_ID":53842,"ELEMENT_SET_NO":999,"REV_AT_EPOCH":19300,"BSTAR":0.00012653253,"MEAN_MOTION_DOT":1.726e-5,"MEAN_MOTION_DDOT":0},{"OBJECT_NAME":"NOAA 16 DEB","OBJECT_ID":"2000-055BZ","EPOCH":"2026-03-09T09:57:46.840608","MEAN_MOTION":15.04968987,"ECCENTRICITY":0.00133628,"INCLINATION":98.8453,"RA_OF_ASC_NODE":286.076,"ARG_OF_PERICENTER":194.204,"MEAN_ANOMALY":165.8809,"EPHEMERIS_TYPE":0,"CLASSIFICATION_TYPE":"U","NORAD_CAT_ID":41142,"ELEMENT_SET_NO":999,"REV_AT_EPOCH":53866,"BSTAR":0.0051237154,"MEAN_MOTION_DOT":0.00073426,"MEAN_MOTION_DDOT":0}]
